[
    {
        "Altitude(m)": 567125.8435448915,
        "Argument of Periapsis(deg)": -0.022603160782972403,
        "Eccentricity": 0.0,
        "Inclination(deg)": 97.0,
        "Latitude(deg)": 29.231681171831866,
        "Longitude(deg)": -106.26321539683013,
        "Mean Anomaly(deg)": 29.4452432691875,
        "RAAN(deg)": 0.005947053618510769,
        "Satellite Name": "Starlink Shell 3 1641",
        "Satellite Number": 1641,
        "Semi-Major Axis(m)": 6938478.169268562,
        "Time(s)": 570
    },
    {
        "Altitude(m)": 567224.3373592943,
        "Argument of Periapsis(deg)": -0.02299970746337543,
        "Eccentricity": 0.0,
        "Inclination(deg)": 97.0,
        "Latitude(deg)": 29.85330929086315,
        "Longitude(deg)": -106.40542642413531,
        "Mean Anomaly(deg)": 30.070719466892506,
        "RAAN(deg)": 0.00605138789251973,
        "Satellite Name": "Starlink Shell 3 1641",
        "Satellite Number": 1641,
        "Semi-Major Axis(m)": 6938478.169268562,
        "Time(s)": 580
    },
    {
        "Altitude(m)": 567325.4122487626,
        "Argument of Periapsis(deg)": -0.023396254143778456,
        "Eccentricity": 0.0,
        "Inclination(deg)": 97.0,
        "Latitude(deg)": 30.47479855060555,
        "Longitude(deg)": -106.5488869882079,
        "Mean Anomaly(deg)": 30.696195664597514,
        "RAAN(deg)": 0.0061557221665286925,
        "Satellite Name": "Starlink Shell 3 1641",
        "Satellite Number": 1641,
        "Semi-Major Axis(m)": 6938478.169268562,
        "Time(s)": 590
    },
    {
        "Altitude(m)": 567428.9943847939,
        "Argument of Periapsis(deg)": -0.023792800824181483,
        "Eccentricity": 0.0,
        "Inclination(deg)": 97.0,
        "Latitude(deg)": 31.096145035622165,
        "Longitude(deg)": -106.69364478047603,
        "Mean Anomaly(deg)": 31.321671862302573,
        "RAAN(deg)": 0.0062600564405376515,
        "Satellite Name": "Starlink Shell 3 1641",
        "Satellite Number": 1641,
        "Semi-Major Axis(m)": 6938478.169268562,
        "Time(s)": 600
    },
    {
        "Altitude(m)": 567535.0089136938,
        "Argument of Periapsis(deg)": -0.024189347504584503,
        "Eccentricity": 0.0,
        "Inclination(deg)": 97.0,
        "Latitude(deg)": 31.717344753886895,
        "Longitude(deg)": -106.83974930543228,
        "Mean Anomaly(deg)": 31.94714806000758,
        "RAAN(deg)": 0.006364390714546612,
        "Satellite Name": "Starlink Shell 3 1641",
        "Satellite Number": 1641,
        "Semi-Major Axis(m)": 6938478.169268562,
        "Time(s)": 610
    },
    {
        "Altitude(m)": 567643.37999647,
        "Argument of Periapsis(deg)": -0.02458589418498753,
        "Eccentricity": 0.0,
        "Inclination(deg)": 97.0,
        "Latitude(deg)": 32.33839363095642,
        "Longitude(deg)": -106.98725147654115,
        "Mean Anomaly(deg)": 32.57262425771264,
        "RAAN(deg)": 0.0064687249885555746,
        "Satellite Name": "Starlink Shell 3 1641",
        "Satellite Number": 1641,
        "Semi-Major Axis(m)": 6938478.169268562,
        "Time(s)": 620
    },
    {
        "Altitude(m)": 567754.0308491515,
        "Argument of Periapsis(deg)": -0.024982440865390556,
        "Eccentricity": 0.0,
        "Inclination(deg)": 97.0,
        "Latitude(deg)": 32.959287503730856,
        "Longitude(deg)": -107.13620489936457,
        "Mean Anomaly(deg)": 33.19810045541769,
        "RAAN(deg)": 0.006573059262564535,
        "Satellite Name": "Starlink Shell 3 1641",
        "Satellite Number": 1641,
        "Semi-Major Axis(m)": 6938478.169268562,
        "Time(s)": 630
    },
    {
        "Altitude(m)": 567866.8837835001,
        "Argument of Periapsis(deg)": -0.025378987545793576,
        "Eccentricity": 0.0,
        "Inclination(deg)": 97.0,
        "Latitude(deg)": 33.580022113770426,
        "Longitude(deg)": -107.2866646399557,
        "Mean Anomaly(deg)": 33.82357665312276,
        "RAAN(deg)": 0.006677393536573496,
        "Satellite Name": "Starlink Shell 3 1641",
        "Satellite Number": 1641,
        "Semi-Major Axis(m)": 6938478.169268562,
        "Time(s)": 640
    },
    {
        "Altitude(m)": 567981.8602481107,
        "Argument of Periapsis(deg)": -0.025775534226196602,
        "Eccentricity": 0.0,
        "Inclination(deg)": 97.0,
        "Latitude(deg)": 34.200593100138974,
        "Longitude(deg)": -107.43868852193945,
        "Mean Anomaly(deg)": 34.449052850827805,
        "RAAN(deg)": 0.006781727810582457,
        "Satellite Name": "Starlink Shell 3 1641",
        "Satellite Number": 1641,
        "Semi-Major Axis(m)": 6938478.169268562,
        "Time(s)": 650
    },
    {
        "Altitude(m)": 568098.8808698623,
        "Argument of Periapsis(deg)": -0.026172080906599626,
        "Eccentricity": 0.0,
        "Inclination(deg)": 97.0,
        "Latitude(deg)": 34.82099599173547,
        "Longitude(deg)": -107.59233675041338,
        "Mean Anomaly(deg)": 35.07452904853282,
        "RAAN(deg)": 0.006886062084591417,
        "Satellite Name": "Starlink Shell 3 1641",
        "Satellite Number": 1641,
        "Semi-Major Axis(m)": 6938478.169268562,
        "Time(s)": 660
    },
    {
        "Altitude(m)": 568217.8654957036,
        "Argument of Periapsis(deg)": -0.026568627587002652,
        "Eccentricity": 0.0,
        "Inclination(deg)": 97.0,
        "Latitude(deg)": 35.441226199076915,
        "Longitude(deg)": -107.74767154424393,
        "Mean Anomaly(deg)": 35.70000524623787,
        "RAAN(deg)": 0.006990396358600378,
        "Satellite Name": "Starlink Shell 3 1641",
        "Satellite Number": 1641,
        "Semi-Major Axis(m)": 6938478.169268562,
        "Time(s)": 670
    },
    {
        "Altitude(m)": 568338.7332347719,
        "Argument of Periapsis(deg)": -0.02696517426740568,
        "Eccentricity": 0.0,
        "Inclination(deg)": 97.0,
        "Latitude(deg)": 36.06127900549008,
        "Longitude(deg)": -107.90475829028634,
        "Mean Anomaly(deg)": 36.325481443942934,
        "RAAN(deg)": 0.00709473063260934,
        "Satellite Name": "Starlink Shell 3 1641",
        "Satellite Number": 1641,
        "Semi-Major Axis(m)": 6938478.169268562,
        "Time(s)": 680
    },
    {
        "Altitude(m)": 568461.4025007463,
        "Argument of Periapsis(deg)": -0.0273617209478087,
        "Eccentricity": 0.0,
        "Inclination(deg)": 97.0,
        "Latitude(deg)": 36.68114955766612,
        "Longitude(deg)": -108.063665194503,
        "Mean Anomaly(deg)": 36.95095764164799,
        "RAAN(deg)": 0.007199064906618299,
        "Satellite Name": "Starlink Shell 3 1641",
        "Satellite Number": 1641,
        "Semi-Major Axis(m)": 6938478.169268562,
        "Time(s)": 690
    },
    {
        "Altitude(m)": 568585.7910545422,
        "Argument of Periapsis(deg)": -0.027758267628211725,
        "Eccentricity": 0.0,
        "Inclination(deg)": 97.0,
        "Latitude(deg)": 37.300832855527034,
        "Longitude(deg)": -108.22446294363262,
        "Mean Anomaly(deg)": 37.57643383935305,
        "RAAN(deg)": 0.00730339918062726,
        "Satellite Name": "Starlink Shell 3 1641",
        "Satellite Number": 1641,
        "Semi-Major Axis(m)": 6938478.169268562,
        "Time(s)": 700
    },
    {
        "Altitude(m)": 568711.816047196,
        "Argument of Periapsis(deg)": -0.028154814308614752,
        "Eccentricity": 0.0,
        "Inclination(deg)": 97.0,
        "Latitude(deg)": 37.92032374135205,
        "Longitude(deg)": -108.3872258911352,
        "Mean Anomaly(deg)": 38.201910037058056,
        "RAAN(deg)": 0.0074077334546362224,
        "Satellite Name": "Starlink Shell 3 1641",
        "Satellite Number": 1641,
        "Semi-Major Axis(m)": 6938478.169268562,
        "Time(s)": 710
    },
    {
        "Altitude(m)": 568839.3940629949,
        "Argument of Periapsis(deg)": -0.02855136098901778,
        "Eccentricity": 0.0,
        "Inclination(deg)": 97.0,
        "Latitude(deg)": 38.53961688810121,
        "Longitude(deg)": -108.5520317426001,
        "Mean Anomaly(deg)": 38.82738623476312,
        "RAAN(deg)": 0.007512067728645183,
        "Satellite Name": "Starlink Shell 3 1641",
        "Satellite Number": 1641,
        "Semi-Major Axis(m)": 6938478.169268562,
        "Time(s)": 720
    },
    {
        "Altitude(m)": 568968.4411627996,
        "Argument of Periapsis(deg)": -0.028947907669420805,
        "Eccentricity": 0.0,
        "Inclination(deg)": 97.0,
        "Latitude(deg)": 39.15870678687133,
        "Longitude(deg)": -108.71896125450813,
        "Mean Anomaly(deg)": 39.45286243246817,
        "RAAN(deg)": 0.007616402002654144,
        "Satellite Name": "Starlink Shell 3 1641",
        "Satellite Number": 1641,
        "Semi-Major Axis(m)": 6938478.169268562,
        "Time(s)": 730
    },
    {
        "Altitude(m)": 569098.8729275437,
        "Argument of Periapsis(deg)": -0.029344454349823825,
        "Eccentricity": 0.0,
        "Inclination(deg)": 97.0,
        "Latitude(deg)": 39.77758773341531,
        "Longitude(deg)": -108.8880994603321,
        "Mean Anomaly(deg)": 40.07833863017323,
        "RAAN(deg)": 0.0077207362766631045,
        "Satellite Name": "Starlink Shell 3 1641",
        "Satellite Number": 1641,
        "Semi-Major Axis(m)": 6938478.169268562,
        "Time(s)": 740
    },
    {
        "Altitude(m)": 569230.604501908,
        "Argument of Periapsis(deg)": -0.029741001030226845,
        "Eccentricity": 0.0,
        "Inclination(deg)": 97.0,
        "Latitude(deg)": 40.396253813642446,
        "Longitude(deg)": -109.05953539945371,
        "Mean Anomaly(deg)": 40.70381482787829,
        "RAAN(deg)": 0.007825070550672067,
        "Satellite Name": "Starlink Shell 3 1641",
        "Satellite Number": 1641,
        "Semi-Major Axis(m)": 6938478.169268562,
        "Time(s)": 750
    }
]